[{"OBJECT_NAME":"TIANPING-3A 02","OBJECT_ID":"2025-068A","EPOCH":"2026-03-09T20:54:34.712640","MEAN_MOTION":14.85842181,"ECCENTRICITY":0.02320093,"INCLINATION":43.0011,"RA_OF_ASC_NODE":213.5906,"ARG_OF_PERICENTER":358.6421,"MEAN_ANOMALY":1.3764,"EPHEMERIS_TYPE":0,"CLASSIFICATION_TYPE":"U","NORAD_CAT_ID":63432,"ELEMENT_SET_NO":999,"REV_AT_EPOCH":5060,"BSTAR":0.00038259976,"MEAN_MOTION_DOT":5.293e-5,"MEAN_MOTION_DDOT":0},{"OBJECT_NAME":"FENGYUN 1C DEB","OBJECT_ID":"1999-025EUR","EPOCH":"2026-03-07T09:41:40.257024","MEAN_MOTION":14.25341338,"ECCENTRICITY":0.0346532,"INCLINATION":98.3608,"RA_OF_ASC_NODE":118.3108,"ARG_OF_PERICENTER":102.8707,"MEAN_ANOMALY":325.6511,"EPHEMERIS_TYPE":0,"CLASSIFICATION_TYPE":"U","NORAD_CAT_ID":38801,"ELEMENT_SET_NO":999,"REV_AT_EPOCH":65566,"BSTAR":0.00083362138,"MEAN_MOTION_DOT":3.651e-5,"MEAN_MOTION_DDOT":0}]
